NORAD_CAT_ID,OBJECT_NAME,OBJECT_TYPE,EPOCH,MEAN_MOTION,ECCENTRICITY,INCLINATION,RA_OF_ASC_NODE,ARG_OF_PERICENTER,MEAN_ANOMALY,BSTAR,MEAN_MOTION_DOT,MEAN_MOTION_DDOT,TLE_LINE0,TLE_LINE1,TLE_LINE2,SEMIMAJOR_AXIS,PERIOD,APOGEE,PERIGEE,DECAYED
53823.0,STARLINK-4748,PAYLOAD,2023-03-28 05:10:59,15.08854377,0.0001152,53.2183,55.8516,120.1587,239.9519,0.00096506,0.0001511,0.0,0 STARLINK-4748,1 53823U 22114F   23087.21596573  .00015110  00000-0  96506-3 0  9996,2 53823  53.2183  55.8516 0001152 120.1587 239.9519 15.08854377 30254,6917.836,95.437,540.498,538.905,0.0
53823.0,STARLINK-4748,PAYLOAD,2023-03-28 08:21:45,15.0886277,0.000128,53.2189,55.2563,120.4988,239.6131,0.0013659,0.00021531,0.0,0 STARLINK-4748,1 53823U 22114F   23087.34844445  .00021531  00000-0  13659-2 0  9995,2 53823  53.2189  55.2563 0001280 120.4988 239.6131 15.08862770 30822,6917.811,95.436,540.561,538.79,0.0
53823.0,STARLINK-4748,PAYLOAD,2023-03-29 00:15:37,15.08850701,0.0001235,53.219,52.2825,135.8492,224.2599,0.0013628,0.00021474,0.0,0 STARLINK-4748,1 53823U 22114F   23088.01084757  .00021474  00000-0  13628-2 0  9994,2 53823  53.2190  52.2825 0001235 135.8492 224.2599 15.08850701 30371,6917.848,95.437,540.567,538.858,0.0
53823.0,STARLINK-4748,PAYLOAD,2023-03-29 06:37:09,15.0885368,0.0001165,53.2183,51.0937,113.6504,246.461,0.0010126,0.0001587,0.0,0 STARLINK-4748,1 53823U 22114F   23088.27580676  .00015870  00000-0  10126-2 0  9996,2 53823  53.2183  51.0937 0001165 113.6504 246.4610 15.08853680 30418,6917.839,95.437,540.51,538.898,0.0
53823.0,STARLINK-4748,PAYLOAD,2023-03-30 03:17:10,15.08841013,0.0001293,53.2176,47.2245,113.6746,246.4382,0.00042191,6.433e-05,0.0,0 STARLINK-4748,1 53823U 22114F   23089.13693202  .00006433  00000-0  42191-3 0  9995,2 53823  53.2176  47.2245 0001293 113.6746 246.4382 15.08841013 30546,6917.877,95.437,540.637,538.848,0.0
53823.0,STARLINK-4748,PAYLOAD,2023-03-30 04:52:34,15.08842546,0.0001251,53.2184,46.9302,97.1842,262.9293,0.00098259,0.00015386,0.0,0 STARLINK-4748,1 53823U 22114F   23089.20317361  .00015386  00000-0  98259-3 0  9995,2 53823  53.2184  46.9302 0001251  97.1842 262.9293 15.08842546 31101,6917.873,95.437,540.603,538.872,0.0
53823.0,STARLINK-4748,PAYLOAD,2023-03-31 03:07:58,15.08743119,5.85e-05,53.2172,42.7684,75.7086,284.3972,-0.0028025,-0.00044495,0.0,0 STARLINK-4748,1 53823U 22114F   23090.13054229 -.00044495  00000-0 -28025-2 0  9998,2 53823  53.2172  42.7684 0000585  75.7086 284.3972 15.08743119 30697,6918.177,95.444,540.446,539.637,0.0
53823.0,STARLINK-4748,PAYLOAD,2023-03-31 12:40:30,15.08467493,0.0002969,53.2182,40.9847,34.4925,325.6259,-0.0078954,-0.00122573,0.0,0 STARLINK-4748,1 53823U 22114F   23090.52813052 -.00122573  00000-0 -78954-2 0  9998,2 53823  53.2182  40.9847 0002969  34.4925 325.6259 15.08467493 30753,6919.019,95.461,542.938,538.83,0.0
53823.0,STARLINK-4748,PAYLOAD,2023-04-01 06:10:24,15.0793873,0.0001691,53.2191,37.7173,64.3098,295.8068,-0.012534,-0.00189823,0.0,0 STARLINK-4748,1 53823U 22114F   23091.25722761 -.00189823  00000-0 -12534-1 0  9997,2 53823  53.2191  37.7173 0001691  64.3098 295.8068 15.07938730 30867,6920.637,95.495,543.672,541.331,0.0
53823.0,STARLINK-4748,PAYLOAD,2023-04-01 12:32:19,15.07763292,0.0001297,53.2191,36.5303,57.9295,302.1822,-0.012688,-0.00191193,0.0,0 STARLINK-4748,1 53823U 22114F   23091.52244694 -.00191193  00000-0 -12688-1 0  9994,2 53823  53.2191  36.5303 0001297  57.9295 302.1822 15.07763292 30902,6921.173,95.506,543.936,542.141,0.0
53823.0,STARLINK-4748,PAYLOAD,2023-04-02 07:38:04,15.07446115,0.0001002,53.2181,32.9678,90.0103,270.1003,-0.0084175,-0.00126977,0.0,0 STARLINK-4748,1 53823U 22114F   23092.31810894 -.00126977  00000-0 -84175-2 0  9992,2 53823  53.2181  32.9678 0001002  90.0103 270.1003 15.07446115 31038,6922.144,95.526,544.703,543.316,0.0
53823.0,STARLINK-4748,PAYLOAD,2023-04-02 10:49:03,15.07391879,0.0001109,53.2188,32.3735,65.9299,294.1808,-0.007777,-0.00117323,0.0,0 STARLINK-4748,1 53823U 22114F   23092.45074068 -.00117323  00000-0 -77770-2 0  9990,2 53823  53.2188  32.3735 0001109  65.9299 294.1808 15.07391879 31055,6922.31,95.529,544.943,543.408,0.0
53823.0,STARLINK-4748,PAYLOAD,2023-04-02 20:22:01,15.07304756,7.09e-05,53.219,30.5923,120.2812,239.8249,-0.004621,-0.00070122,0.0,0 STARLINK-4748,1 53823U 22114F   23092.84862363 -.00070122  00000-0 -46210-2 0  9996,2 53823  53.2190  30.5923 0000709 120.2812 239.8249 15.07304756 31118,6922.577,95.535,544.933,543.951,0.0
53823.0,STARLINK-4748,PAYLOAD,2023-04-02 21:57:30,15.07292798,0.0001129,53.219,30.2939,94.3908,265.7212,-0.0041008,-0.00062309,0.0,0 STARLINK-4748,1 53823U 22114F   23092.91493811 -.00062309  00000-0 -41008-2 0  9990,2 53823  53.2190  30.2939 0001129  94.3908 265.7212 15.07292798 31666,6922.614,95.536,545.26,543.697,0.0
53823.0,STARLINK-4748,PAYLOAD,2023-04-03 06:00:00,15.07178618,0.0001087,53.218,28.7939,101.7446,277.2279,0.0015474,0.00023332,0.0,0 STARLINK-4748,1 53823U 22114F   23093.25001157  .00023332  00000-0  15474-2 0  9995,2 53823  53.2180  28.7939 0001087 101.7446 277.2279 15.07178618 31171,6922.963,95.543,545.581,544.076,0.0
53823.0,STARLINK-4748,PAYLOAD,2023-04-03 14:00:01,15.07184172,0.0001131,53.2179,27.2998,117.3378,271.2474,0.0021466,0.00032524,0.0,0 STARLINK-4748,1 53823U 22114F   23093.58334491  .00032524  00000-0  21466-2 0  9992,2 53823  53.2179  27.2998 0001131 117.3378 271.2474 15.07184172  1300,6922.946,95.542,545.594,544.028,0.0
53823.0,STARLINK-4748,PAYLOAD,2023-04-03 22:00:00,15.07249451,0.0001198,53.2181,25.8078,122.5812,275.6242,-0.0028271,-0.00043109,0.0,0 STARLINK-4748,1 53823U 22114F   23093.91667824 -.00043109  00000-0 -28271-2 0  9992,2 53823  53.2181  25.8078 0001198 122.5812 275.6242 15.07249451  1303,6922.746,95.538,545.441,543.782,0.0
53823.0,STARLINK-4748,PAYLOAD,2023-04-04 08:00:01,15.07163315,0.0001189,53.2174,23.9429,125.8576,14.4932,0.0024231,0.00036751,0.0,0 STARLINK-4748,1 53823U 22114F   23094.33335648  .00036751  00000-0  24231-2 0  9990,2 53823  53.2174  23.9429 0001189 125.8576  14.4932 15.07163315 31332,6923.01,95.544,545.698,544.052,0.0
53823.0,STARLINK-4748,PAYLOAD,2023-04-04 16:00:00,15.07156376,9.71e-05,53.2173,22.4489,104.3388,45.5585,0.0047832,0.00073186,0.0,0 STARLINK-4748,1 53823U 22114F   23094.66667824  .00073186  00000-0  47832-2 0  9995,2 53823  53.2173  22.4489 0000971 104.3388  45.5585 15.07156376  1304,6923.031,95.544,545.569,544.224,0.0
53823.0,STARLINK-4748,PAYLOAD,2023-04-05 00:00:00,15.07218506,0.0001018,53.2174,20.9578,95.1545,64.3279,-0.0031625,-0.00048115,0.0,0 STARLINK-4748,1 53823U 22114F   23095.00001157 -.00048115  00000-0 -31625-2 0  9994,2 53823  53.2174  20.9578 0001018  95.1545  64.3279 15.07218506  1305,6922.841,95.54,545.411,544.001,0.0
53823.0,STARLINK-4748,PAYLOAD,2023-04-05 04:04:12,15.07205399,0.0001104,53.2181,20.1979,91.7158,268.396,0.00036927,5.342e-05,0.0,0 STARLINK-4748,1 53823U 22114F   23095.16959079  .00005342  00000-0  36927-3 0  9990,2 53823  53.2181  20.1979 0001104  91.7158 268.3960 15.07205399 31467,6922.881,95.541,545.511,543.982,0.0
53823.0,STARLINK-4748,PAYLOAD,2023-04-06 03:56:31,15.07252975,0.0001048,53.2176,15.7438,89.5456,270.5655,0.0013469,0.00020305,0.0,0 STARLINK-4748,1 53823U 22114F   23096.16425058  .00020305  00000-0  13469-2 0  9997,2 53823  53.2176  15.7438 0001048  89.5456 270.5655 15.07252975 31619,6922.736,95.538,545.326,543.875,0.0
53823.0,STARLINK-4748,PAYLOAD,2023-04-06 18:15:56,15.07209765,0.0001433,53.2178,13.0716,83.0779,277.0375,-1.6372e-05,-5.33e-06,0.0,0 STARLINK-4748,1 53823U 22114F   23096.76106567 -.00000533  00000-0 -16372-4 0  9995,2 53823  53.2178  13.0716 0001433  83.0779 277.0375 15.07209765 31706,6922.868,95.541,545.725,543.741,0.0
53823.0,STARLINK-4748,PAYLOAD,2023-04-07 03:48:52,15.07195603,0.0001224,53.2176,11.289,74.4919,285.6207,-3.2818e-05,-7.83e-06,0.0,0 STARLINK-4748,1 53823U 22114F   23097.15894327 -.00000783  00000-0 -32818-4 0  9997,2 53823  53.2176  11.2890 0001224  74.4919 285.6207 15.07195603 31765,6922.911,95.542,545.624,543.929,0.0
53823.0,STARLINK-4748,PAYLOAD,2023-04-08 03:41:13,15.07221584,0.0001262,53.2182,6.8354,72.1521,287.9608,0.0010478,0.00015709,0.0,0 STARLINK-4748,1 53823U 22114F   23098.15362288  .00015709  00000-0  10478-2 0  9992,2 53823  53.2182   6.8354 0001262  72.1521 287.9608 15.07221584 31918,6922.832,95.54,545.57,543.823,0.0
53823.0,STARLINK-4748,PAYLOAD,2023-04-09 03:33:33,15.07218971,0.0001146,53.2177,2.3822,82.958,277.1542,0.00079318,0.00011815,0.0,0 STARLINK-4748,1 53823U 22114F   23099.14830245  .00011815  00000-0  79318-3 0  9998,2 53823  53.2177   2.3822 0001146  82.9580 277.1542 15.07218971 32069,6922.84,95.54,545.498,543.911,0.0
53823.0,STARLINK-4748,PAYLOAD,2023-04-09 17:52:57,15.07202083,0.0001221,53.2177,359.7105,93.6432,266.4699,0.00067307,9.976e-05,0.0,0 STARLINK-4748,1 53823U 22114F   23099.74511312  .00009976  00000-0  67307-3 0  9995,2 53823  53.2177 359.7105 0001221  93.6432 266.4699 15.07202083 32152,6922.891,95.541,545.602,543.911,0.0
53823.0,STARLINK-4748,PAYLOAD,2023-04-10 17:45:17,15.07210534,0.0001176,53.2174,355.2579,98.0552,262.0573,0.00035723,5.159e-05,0.0,0 STARLINK-4748,1 53823U 22114F   23100.73979117  .00005159  00000-0  35723-3 0  9994,2 53823  53.2174 355.2579 0001176  98.0552 262.0573 15.07210534 32845,6922.866,95.541,545.545,543.916,0.0
53823.0,STARLINK-4748,PAYLOAD,2023-04-11 03:18:13,15.07218895,0.0001169,53.2173,353.4755,92.686,267.4266,0.00047862,7.012e-05,0.0,0 STARLINK-4748,1 53823U 22114F   23101.13765909  .00007012  00000-0  47862-3 0  9998,2 53823  53.2173 353.4755 0001169  92.6860 267.4266 15.07218895 32907,6922.84,95.54,545.514,543.896,0.0
53823.0,STARLINK-4748,PAYLOAD,2023-04-12 01:35:05,15.07204675,0.0001414,53.217,349.3187,84.6021,275.5132,0.0001308,1.708e-05,0.0,0 STARLINK-4748,1 53823U 22114F   23102.06603320  .00001708  00000-0  13080-3 0  9990,2 53823  53.2170 349.3187 0001414  84.6021 275.5132 15.07204675 32509,6922.883,95.541,545.727,543.77,0.0
